[
  {
    "OBJECT_NAME": "STARLINK-1363",
    "OBJECT_ID": "20025AP",
    "EPOCH": "2025-11-11T08:00:03.000384",
    "MEAN_MOTION": 15.4361671,
    "ECCENTRICITY": 0.0005092,
    "INCLINATION": 53.053,
    "RA_OF_ASC_NODE": 252.8351,
    "ARG_OF_PERICENTER": 101.1323,
    "MEAN_ANOMALY": 59.6573,
    "EPHEMERIS_TYPE": 0,
    "CLASSIFICATION_TYPE": "U",
    "NORAD_CAT_ID": 45568,
    "ELEMENT_SET_NO": 999,
    "REV_AT_EPOCH": 576,
    "BSTAR": 0.0031054,
    "MEAN_MOTION_DOT": 0.00144242,
    "MEAN_MOTION_DDOT": 0.0,
    "TLE_LINE1": "1 45568U 20025AP  25315.33336806  .00144242  00000+0  31054-2 0  9996",
    "TLE_LINE2": "2 45568  53.0530 252.8351 0005092 101.1323  59.6573 15.43616710  5766",
    "COMMENT": "Grouped by shell and plane from TLE"
  },
  {
    "OBJECT_NAME": "STARLINK-1366",
    "OBJECT_ID": "20025AQ",
    "EPOCH": "2025-11-11T05:02:19.084704",
    "MEAN_MOTION": 15.42060815,
    "ECCENTRICITY": 0.0004975,
    "INCLINATION": 53.0526,
    "RA_OF_ASC_NODE": 252.9712,
    "ARG_OF_PERICENTER": 92.0123,
    "MEAN_ANOMALY": 268.1451,
    "EPHEMERIS_TYPE": 0,
    "CLASSIFICATION_TYPE": "U",
    "NORAD_CAT_ID": 45569,
    "ELEMENT_SET_NO": 999,
    "REV_AT_EPOCH": 30758,
    "BSTAR": 0.0033610000000000003,
    "MEAN_MOTION_DOT": 0.00148262,
    "MEAN_MOTION_DDOT": 0.0,
    "TLE_LINE1": "1 45569U 20025AQ  25315.20994311  .00148262  00000+0  33610-2 0  9990",
    "TLE_LINE2": "2 45569  53.0526 252.9712 0004975  92.0123 268.1451 15.42060815307584",
    "COMMENT": "Grouped by shell and plane from TLE"
  },
  {
    "OBJECT_NAME": "STARLINK-2540",
    "OBJECT_ID": "21036Q",
    "EPOCH": "2025-11-11T08:00:03.000384",
    "MEAN_MOTION": 15.39751197,
    "ECCENTRICITY": 0.0001461,
    "INCLINATION": 53.0539,
    "RA_OF_ASC_NODE": 250.8649,
    "ARG_OF_PERICENTER": 55.5253,
    "MEAN_ANOMALY": 241.168,
    "EPHEMERIS_TYPE": 0,
    "CLASSIFICATION_TYPE": "U",
    "NORAD_CAT_ID": 48290,
    "ELEMENT_SET_NO": 999,
    "REV_AT_EPOCH": 580,
    "BSTAR": 0.032379000000000005,
    "MEAN_MOTION_DOT": 0.01436319,
    "MEAN_MOTION_DDOT": 0.0,
    "TLE_LINE1": "1 48290U 21036Q   25315.33336806  .01436319  00000+0  32379-1 0  9994",
    "TLE_LINE2": "2 48290  53.0539 250.8649 0001461  55.5253 241.1680 15.39751197  5804",
    "COMMENT": "Grouped by shell and plane from TLE"
  },
  {
    "OBJECT_NAME": "STARLINK-30228",
    "OBJECT_ID": "23113H",
    "EPOCH": "2025-11-11T05:08:44.658528",
    "MEAN_MOTION": 15.44336577,
    "ECCENTRICITY": 0.0022492,
    "INCLINATION": 42.9879,
    "RA_OF_ASC_NODE": 254.6064,
    "ARG_OF_PERICENTER": 165.0502,
    "MEAN_ANOMALY": 195.1025,
    "EPHEMERIS_TYPE": 0,
    "CLASSIFICATION_TYPE": "U",
    "NORAD_CAT_ID": 57502,
    "ELEMENT_SET_NO": 999,
    "REV_AT_EPOCH": 12627,
    "BSTAR": 0.0035586000000000003,
    "MEAN_MOTION_DOT": 0.00172979,
    "MEAN_MOTION_DDOT": 0.0,
    "TLE_LINE1": "1 57502U 23113H   25315.21440577  .00172979  00000+0  35586-2 0  9998",
    "TLE_LINE2": "2 57502  42.9879 254.6064 0022492 165.0502 195.1025 15.44336577126271",
    "COMMENT": "Grouped by shell and plane from TLE"
  },
  {
    "OBJECT_NAME": "STARLINK-30277",
    "OBJECT_ID": "23122P",
    "EPOCH": "2025-11-11T06:03:02.262528",
    "MEAN_MOTION": 15.2757163,
    "ECCENTRICITY": 0.0001381,
    "INCLINATION": 43.0042,
    "RA_OF_ASC_NODE": 259.276,
    "ARG_OF_PERICENTER": 267.6572,
    "MEAN_ANOMALY": 92.4122,
    "EPHEMERIS_TYPE": 0,
    "CLASSIFICATION_TYPE": "U",
    "NORAD_CAT_ID": 57645,
    "ELEMENT_SET_NO": 999,
    "REV_AT_EPOCH": 12576,
    "BSTAR": 0.00012923,
    "MEAN_MOTION_DOT": 3.295e-05,
    "MEAN_MOTION_DDOT": 0.0,
    "TLE_LINE1": "1 57645U 23122P   25315.25210952  .00003295  00000+0  12923-3 0  9997",
    "TLE_LINE2": "2 57645  43.0042 259.2760 0001381 267.6572  92.4122 15.27571630125769",
    "COMMENT": "Grouped by shell and plane from TLE"
  },
  {
    "OBJECT_NAME": "STARLINK-30917",
    "OBJECT_ID": "23180T",
    "EPOCH": "2025-11-11T04:32:12.863328",
    "MEAN_MOTION": 15.27571131,
    "ECCENTRICITY": 0.0001116,
    "INCLINATION": 42.9997,
    "RA_OF_ASC_NODE": 252.9826,
    "ARG_OF_PERICENTER": 275.0517,
    "MEAN_ANOMALY": 85.0208,
    "EPHEMERIS_TYPE": 0,
    "CLASSIFICATION_TYPE": "U",
    "NORAD_CAT_ID": 58419,
    "ELEMENT_SET_NO": 999,
    "REV_AT_EPOCH": 11077,
    "BSTAR": 0.0001179,
    "MEAN_MOTION_DOT": 2.983e-05,
    "MEAN_MOTION_DDOT": 0.0,
    "TLE_LINE1": "1 58419U 23180T   25315.18903777  .00002983  00000+0  11790-3 0  9991",
    "TLE_LINE2": "2 58419  42.9997 252.9826 0001116 275.0517  85.0208 15.27571131110771",
    "COMMENT": "Grouped by shell and plane from TLE"
  },
  {
    "OBJECT_NAME": "STARLINK-31012",
    "OBJECT_ID": "23192A",
    "EPOCH": "2025-11-11T02:55:13.752480",
    "MEAN_MOTION": 15.30194994,
    "ECCENTRICITY": 0.0001198,
    "INCLINATION": 53.1604,
    "RA_OF_ASC_NODE": 253.3699,
    "ARG_OF_PERICENTER": 86.549,
    "MEAN_ANOMALY": 273.5648,
    "EPHEMERIS_TYPE": 0,
    "CLASSIFICATION_TYPE": "U",
    "NORAD_CAT_ID": 58531,
    "ELEMENT_SET_NO": 999,
    "REV_AT_EPOCH": 10783,
    "BSTAR": 7.890800000000001e-05,
    "MEAN_MOTION_DOT": 1.978e-05,
    "MEAN_MOTION_DDOT": 0.0,
    "TLE_LINE1": "1 58531U 23192A   25315.12168695  .00001978  00000+0  78908-4 0  9993",
    "TLE_LINE2": "2 58531  53.1604 253.3699 0001198  86.5490 273.5648 15.30194994107830",
    "COMMENT": "Grouped by shell and plane from TLE"
  },
  {
    "OBJECT_NAME": "STARLINK-31036",
    "OBJECT_ID": "23192C",
    "EPOCH": "2025-11-11T05:14:52.629216",
    "MEAN_MOTION": 15.30191099,
    "ECCENTRICITY": 0.0001078,
    "INCLINATION": 53.1615,
    "RA_OF_ASC_NODE": 253.2919,
    "ARG_OF_PERICENTER": 85.5913,
    "MEAN_ANOMALY": 274.5211,
    "EPHEMERIS_TYPE": 0,
    "CLASSIFICATION_TYPE": "U",
    "NORAD_CAT_ID": 58533,
    "ELEMENT_SET_NO": 999,
    "REV_AT_EPOCH": 10784,
    "BSTAR": 7.1846e-05,
    "MEAN_MOTION_DOT": 1.769e-05,
    "MEAN_MOTION_DDOT": 0.0,
    "TLE_LINE1": "1 58533U 23192C   25315.21866469  .00001769  00000+0  71846-4 0  9991",
    "TLE_LINE2": "2 58533  53.1615 253.2919 0001078  85.5913 274.5211 15.30191099107845",
    "COMMENT": "Grouped by shell and plane from TLE"
  },
  {
    "OBJECT_NAME": "STARLINK-31032",
    "OBJECT_ID": "23192E",
    "EPOCH": "2025-11-11T02:59:46.785984",
    "MEAN_MOTION": 15.3017005,
    "ECCENTRICITY": 0.0001226,
    "INCLINATION": 53.1586,
    "RA_OF_ASC_NODE": 253.3869,
    "ARG_OF_PERICENTER": 92.8918,
    "MEAN_ANOMALY": 267.2223,
    "EPHEMERIS_TYPE": 0,
    "CLASSIFICATION_TYPE": "U",
    "NORAD_CAT_ID": 58535,
    "ELEMENT_SET_NO": 999,
    "REV_AT_EPOCH": 10783,
    "BSTAR": 0.0,
    "MEAN_MOTION_DOT": -0.0001208,
    "MEAN_MOTION_DDOT": 0.0,
    "TLE_LINE1": "1 58535U 23192E   25315.12484706 -.00012080  00000+0 -39676-3 0  9997",
    "TLE_LINE2": "2 58535  53.1586 253.3869 0001226  92.8918 267.2223 15.30170050107835",
    "COMMENT": "Grouped by shell and plane from TLE"
  },
  {
    "OBJECT_NAME": "STARLINK-31037",
    "OBJECT_ID": "23192F",
    "EPOCH": "2025-11-11T03:05:52.048032",
    "MEAN_MOTION": 15.30195392,
    "ECCENTRICITY": 0.0001349,
    "INCLINATION": 53.1605,
    "RA_OF_ASC_NODE": 253.4324,
    "ARG_OF_PERICENTER": 94.6938,
    "MEAN_ANOMALY": 265.4217,
    "EPHEMERIS_TYPE": 0,
    "CLASSIFICATION_TYPE": "U",
    "NORAD_CAT_ID": 58536,
    "ELEMENT_SET_NO": 999,
    "REV_AT_EPOCH": 10783,
    "BSTAR": 4.1072e-05,
    "MEAN_MOTION_DOT": 8.57e-06,
    "MEAN_MOTION_DDOT": 0.0,
    "TLE_LINE1": "1 58536U 23192F   25315.12907463  .00000857  00000+0  41072-4 0  9999",
    "TLE_LINE2": "2 58536  53.1605 253.4324 0001349  94.6938 265.4217 15.30195392107832",
    "COMMENT": "Grouped by shell and plane from TLE"
  },
  {
    "OBJECT_NAME": "STARLINK-31041",
    "OBJECT_ID": "23192G",
    "EPOCH": "2025-11-11T03:04:21.083520",
    "MEAN_MOTION": 15.30191723,
    "ECCENTRICITY": 9.26e-05,
    "INCLINATION": 53.161,
    "RA_OF_ASC_NODE": 253.4085,
    "ARG_OF_PERICENTER": 87.6602,
    "MEAN_ANOMALY": 272.4505,
    "EPHEMERIS_TYPE": 0,
    "CLASSIFICATION_TYPE": "U",
    "NORAD_CAT_ID": 58537,
    "ELEMENT_SET_NO": 999,
    "REV_AT_EPOCH": 10783,
    "BSTAR": 6.939e-05,
    "MEAN_MOTION_DOT": 1.696e-05,
    "MEAN_MOTION_DDOT": 0.0,
    "TLE_LINE1": "1 58537U 23192G   25315.12802180  .00001696  00000+0  69390-4 0  9995",
    "TLE_LINE2": "2 58537  53.1610 253.4085 0000926  87.6602 272.4505 15.30191723107835",
    "COMMENT": "Grouped by shell and plane from TLE"
  },
  {
    "OBJECT_NAME": "STARLINK-31014",
    "OBJECT_ID": "23192H",
    "EPOCH": "2025-11-11T06:27:38.683872",
    "MEAN_MOTION": 15.30206809,
    "ECCENTRICITY": 0.0001437,
    "INCLINATION": 53.1605,
    "RA_OF_ASC_NODE": 252.861,
    "ARG_OF_PERICENTER": 90.5645,
    "MEAN_ANOMALY": 269.5521,
    "EPHEMERIS_TYPE": 0,
    "CLASSIFICATION_TYPE": "U",
    "NORAD_CAT_ID": 58538,
    "ELEMENT_SET_NO": 999,
    "REV_AT_EPOCH": 10785,
    "BSTAR": 0.00015518000000000002,
    "MEAN_MOTION_DOT": 4.24e-05,
    "MEAN_MOTION_DDOT": 0.0,
    "TLE_LINE1": "1 58538U 23192H   25315.26919773  .00004240  00000+0  15518-3 0  9998",
    "TLE_LINE2": "2 58538  53.1605 252.8610 0001437  90.5645 269.5521 15.30206809107854",
    "COMMENT": "Grouped by shell and plane from TLE"
  },
  {
    "OBJECT_NAME": "STARLINK-31055",
    "OBJECT_ID": "23192J",
    "EPOCH": "2025-11-11T06:32:12.300576",
    "MEAN_MOTION": 15.30201931,
    "ECCENTRICITY": 0.0001425,
    "INCLINATION": 53.1616,
    "RA_OF_ASC_NODE": 252.8823,
    "ARG_OF_PERICENTER": 83.2811,
    "MEAN_ANOMALY": 276.8352,
    "EPHEMERIS_TYPE": 0,
    "CLASSIFICATION_TYPE": "U",
    "NORAD_CAT_ID": 58539,
    "ELEMENT_SET_NO": 999,
    "REV_AT_EPOCH": 10785,
    "BSTAR": 0.00015552,
    "MEAN_MOTION_DOT": 4.25e-05,
    "MEAN_MOTION_DDOT": 0.0,
    "TLE_LINE1": "1 58539U 23192J   25315.27236459  .00004250  00000+0  15552-3 0  9992",
    "TLE_LINE2": "2 58539  53.1616 252.8823 0001425  83.2811 276.8352 15.30201931107858",
    "COMMENT": "Grouped by shell and plane from TLE"
  }
]